SCD 1                   
1 22490U 93009B   26168.52087976  .00000327  00000+0  38486-4 0  9999
2 22490  24.9678 205.5170 0042067 141.2248 338.0371 14.46118916761163
TECHSAT 1B (GO-32)      
1 25397U 98043D   26168.48584790  .00000035  00000+0  35404-4 0  9995
2 25397  99.0067 161.2520 0001079 161.9506 198.1711 14.24428440451372
SCD 2                   
1 25504U 98060A   26168.17956295  .00000355  00000+0  48260-4 0  9992
2 25504  24.9954  72.2040 0016945 122.8124  10.9716 14.45525886460328
DLR-TUBSAT              
1 25757U 99029B   26168.50010189  .00000049  00000+0  23873-4 0  9991
2 25757  98.6695 164.0144 0014029 354.3005   5.8027 14.52426904433297
TERRA                   
1 25994U 99068A   26168.57976503  .00000315  00000+0  73025-4 0  9995
2 25994  97.9456 218.1105 0001612 187.9869 308.7485 14.61103398409663
MAROC-TUBSAT            
1 27004U 01056D   26168.44055534 -.00000042  00000+0  53626-5 0  9991
2 27004  99.8082 345.3048 0020338 140.6327 282.6100 13.70262458226228
AQUA                    
1 27424U 02022A   26168.60039608  .00000588  00000+0  12663-3 0  9991
2 27424  98.4277 137.8914 0001089  53.4593   1.2304 14.62158570283336
SHIYAN-1 (SY-1)         
1 28220U 04012A   26168.11837151  .00011396  00000+0  35142-3 0  9998
2 28220  97.8694 246.1820 0005598  33.0466 327.1124 15.33759861211081
AURA                    
1 28376U 04026A   26168.53387341  .00000597  00000+0  13068-3 0  9996
2 28376  98.3417 124.9900 0001212  75.6458 284.4877 14.61329496166262
IRS-P5 (CARTOSAT-1)     
1 28649U 05017A   26168.61516643  .00001213  00000+0  12789-3 0  9993
2 28649  97.5308 191.6602 0002560  79.4643 280.6864 14.91050438143887
SINAH 1                 
1 28893U 05043D   26168.60087306  .00000231  00000+0  53224-4 0  9990
2 28893  98.2861 302.9252 0013126 275.3732  84.5972 14.64157844100584
RESURS-DK 1             
1 29228U 06021A   26168.49808350  .00001714  00000+0  10235-3 0  9998
2 29228  69.9343 338.7479 0006918 291.5563  68.4865 15.13219728102622
ARIRANG-2 (KOMPSAT-2)   
1 29268U 06031A   26168.63962512  .00000177  00000+0  41679-4 0  9999
2 29268  97.8301 353.0640 0015921  73.2148  15.2702 14.64660302 61546
LAPAN-TUBSAT            
1 29709U 07001A   26168.59104051 -.00000229  00000+0 -19555-4 0  9996
2 29709  98.1336 167.8242 0011862 178.0034 182.1230 14.85948684 51213
HAIYANG-1B              
1 31113U 07010A   26168.49440790  .00000068  00000+0  41815-4 0  9993
2 31113  98.3495 150.3277 0013032 195.3754 164.7035 14.31026969   688
COSMO-SKYMED 1          
1 31598U 07023A   26168.60287095  .00002174  00000+0  19368-3 0  9991
2 31598  97.8848   0.4620 0001323  98.4696 261.6676 14.97100802 29855
TERRASAR-X              
1 31698U 07026A   26166.54501914  .00000298  00000+0  17394-4 0  9998
2 31698  97.4452 174.2739 0001604  89.1769 270.9649 15.19148908 52970
WORLDVIEW-1 (WV-1)      
1 32060U 07041A   26168.55465895  .00004904  00000+0  20375-3 0  9999
2 32060  97.3882 288.2926 0002214  20.7498 339.3829 15.24270204 42938
YAOGAN-3                
1 32289U 07055A   26168.59719344  .00001080  00000+0  11556-3 0  9995
2 32289  97.8149 198.4708 0001921  79.4876 280.6558 14.90782483  5932
COSMO-SKYMED 2          
1 32376U 07059A   26168.63362034  .00000303  00000+0  44564-4 0  9994
2 32376  97.8886 352.2250 0001346  87.4955 272.6412 14.82155295  2075
RADARSAT-2              
1 32382U 07061A   26168.59758002 -.00000074  00000+0 -11637-4 0  9995
2 32382  98.5770 175.5241 0001291  83.0064 277.1266 14.29981577966011
CARTOSAT-2A             
1 32783U 08021A   26168.58767196  .00000989  00000+0  13965-3 0  9998
2 32783  97.7630 217.2828 0013204 107.4911 252.7746 14.79241421978866
HUANJING 1A (HJ-1A)     
1 33320U 08041A   26168.63831911  .00000608  00000+0  79029-4 0  9993
2 33320  97.6677 154.4590 0019962 133.3186 226.9697 14.83985114958473
HUANJING 1B (HJ-1B)     
1 33321U 08041B   26168.60759428  .00001086  00000+0  13740-3 0  9991
2 33321  97.6513 157.6003 0036071 179.4924 180.6334 14.83319028958477
GEOEYE 1                
1 33331U 08042A   26168.56178690  .00000363  00000+0  76998-4 0  9996
2 33331  98.1236 242.4883 0005388  68.7789 291.3989 14.64726043950208
THEOS                   
1 33396U 08049A   26168.60296288  .00000082  00000+0  58416-4 0  9996
2 33396  98.5570 225.8733 0001240  79.2467 280.8850 14.20133521918025
COSMO-SKYMED 3          
1 33412U 08054A   26168.60796222  .00002987  00000+0  20377-3 0  9994
2 33412  97.8282  27.1852 0014120 265.3896  94.5718 15.06956390957002
YAOGAN-4                
1 33446U 08061A   26168.36948723  .00000780  00000+0  10193-3 0  9991
2 33446  97.9308 101.8785 0015723  71.9470 288.3455 14.83200360945699
GOSAT (IBUKI)           
1 33492U 09002A   26167.86562830  .00000941  00000+0  17441-3 0  9995
2 33492  98.0890 278.9506 0001526  82.1774 277.9604 14.67539630931414
DEIMOS-1                
1 35681U 09041A   26168.59333444  .00000177  00000+0  33216-4 0  9998
2 35681  97.7399 325.8028 0001651 129.8499 230.2857 14.75236649906944
